OBJECT_NAME,OBJECT_ID,EPOCH,MEAN_MOTION,ECCENTRICITY,INCLINATION,RA_OF_ASC_NODE,ARG_OF_PERICENTER,MEAN_ANOMALY,EPHEMERIS_TYPE,CLASSIFICATION_TYPE,NORAD_CAT_ID,ELEMENT_SET_NO,REV_AT_EPOCH,BSTAR,MEAN_MOTION_DOT,MEAN_MOTION_DDOT
STARLINK-30457,2023-146K,2026-06-26T23:01:31.782432,15.27574817,.0001098,43.0037,57.4382,269.5191,90.5535,0,U,57900,999,15270,.52532E-5,-.118E-5,0
STARLINK-30472,2023-146L,2026-06-26T23:40:55.189632,15.27555957,.0001382,43.0060,53.3820,265.8455,94.2239,0,U,57901,999,15275,-.73611E-4,-.2286E-4,0
STARLINK-30462,2023-146M,2026-06-26T22:46:43.529088,15.27571365,.0000575,43.0006,57.3691,241.7444,118.3349,0,U,57902,999,15372,-.15211E-4,-.68E-5,0
STARLINK-30449,2023-146N,2026-06-26T23:40:10.888032,15.27568830,.0001051,43.0055,56.7852,262.5378,97.5354,0,U,57903,999,15271,-.32926E-4,-.1168E-4,0
STARLINK-30466,2023-146P,2026-06-26T22:52:17.820192,15.27558282,.0001077,43.0004,57.4014,267.7053,92.3676,0,U,57904,999,15270,-.87577E-4,-.2669E-4,0
STARLINK-30428,2023-146R,2026-06-26T22:55:59.080224,15.27569198,.0000547,43.0025,57.4132,245.4074,114.6720,0,U,57906,999,15270,-.26139E-4,-.981E-5,0
STARLINK-30482,2023-146S,2026-06-26T16:56:00.339072,15.27568124,.00023056,43.0050,58.9793,269.0830,90.9758,0,U,57907,999,15267,-.28767298E-4,-.1054E-4,0
STARLINK-30464,2023-146T,2026-06-26T16:51:35.148960,15.27578775,.00011418,42.9999,62.3464,264.1903,95.8818,0,U,57908,999,15262,.81431506E-4,.1979E-4,0
STARLINK-30463,2023-146U,2026-06-26T23:23:44.617344,15.27561174,.0002037,43.0112,57.5564,285.3533,74.7094,0,U,57909,999,15270,-.3103E-4,-.1116E-4,0
STARLINK-30453,2023-146V,2026-06-26T23:00:23.884128,15.27567887,.0001725,43.0028,54.0361,272.9717,87.0937,0,U,57910,999,15274,-.61468E-4,-.1953E-4,0
STARLINK-30478,2023-146W,2026-06-26T23:36:24.830208,15.27611716,.000154,43.0059,56.7638,261.5803,98.4874,0,U,57911,999,15377,.17732E-3,.4625E-4,0
STARLINK-30477,2023-146X,2026-06-26T17:18:42.337440,15.27587239,.00016236,43.0063,54.8346,243.8890,116.1794,0,U,57912,999,15377,-.49553735E-4,-.1626E-4,0
STARLINK-30450,2023-147A,2026-06-26T23:10:28.487136,15.27622808,.0001501,43.0027,67.7967,263.6123,96.4558,0,U,57913,999,15331,.90779E-4,.224E-4,0
STARLINK-30483,2023-147B,2026-06-26T23:31:07.615200,15.27574037,.0000955,42.9980,282.4146,275.7381,84.3362,0,U,57914,999,15502,.85413E-5,-.27E-6,0
STARLINK-30454,2023-147C,2026-06-26T23:21:37.315584,15.27571632,.0001303,43.0018,67.8528,268.1974,91.8729,0,U,57915,999,15331,-.17091E-4,-.732E-5,0
STARLINK-30501,2023-147E,2026-06-26T23:25:19.161408,15.27556711,.0001817,43.0002,67.8696,266.8831,93.1813,0,U,57917,999,15333,-.42584E-3,-.11953E-3,0
STARLINK-30499,2023-147F,2026-06-26T16:48:48.027168,15.27575709,.00016472,43.0026,284.5883,259.6522,100.4144,0,U,57918,999,15500,-.25272645E-4,-.958E-5,0
STARLINK-30496,2023-147G,2026-06-26T23:41:59.485056,15.27586481,.0001093,43.0007,67.9580,252.3144,107.7588,0,U,57919,999,15334,.32415E-3,.867E-4,0
STARLINK-30485,2023-147H,2026-06-26T23:47:31.650720,15.27573148,.00014,43.0026,67.9884,268.9821,91.0870,0,U,57920,999,15334,-.19943E-5,-.317E-5,0
STARLINK-30492,2023-147J,2026-06-26T17:40:09.131520,15.27566233,.00024872,43.0045,69.5102,270.9711,89.0856,0,U,57921,999,15327,-.31891332E-4,-.114E-4,0
STARLINK-30440,2023-147L,2026-06-26T18:07:58.496160,15.27515160,.00009257,43.0034,69.6477,269.9429,90.1316,0,U,57923,999,15330,-.29417934E-3,-.8332E-4,0
STARLINK-30487,2023-147M,2026-06-26T09:54:11.396160,15.27584683,.0000911,43.0018,74.7676,274.0238,86.0509,0,U,57924,999,15321,.40188E-4,.844E-5,0
STARLINK-30452,2023-147N,2026-06-26T16:37:27.287616,15.27569000,.00021019,43.0068,70.0375,268.2340,91.8271,0,U,57925,999,15326,-.20380505E-4,-.823E-5,0
STARLINK-30468,2023-147P,2026-06-26T23:26:27.846816,15.27572459,.0001339,43.0033,71.2847,269.7891,90.2807,0,U,57926,999,15327,-.38524E-5,-.368E-5,0
STARLINK-30448,2023-147R,2026-06-26T22:12:39.881376,15.27561917,.000158,43.0011,71.7492,277.0103,83.0569,0,U,57928,999,15326,-.49713E-4,-.1629E-4,0
STARLINK-30476,2023-147T,2026-06-27T04:09:06.954624,15.83580581,.0009457,42.9914,345.3668,42.6738,317.4868,0,U,57930,999,15428,.98019E-3,.228184E-2,0
STARLINK-30488,2023-147U,2026-06-26T23:52:22.276128,15.27564233,.0001345,43.0017,71.4065,256.4310,103.6392,0,U,57931,999,15330,-.55684E-4,-.1793E-4,0
STARLINK-30471,2023-147V,2026-06-26T23:04:58.217952,15.27578283,.0001988,43.0040,67.7630,284.5887,75.4744,0,U,57932,999,15331,.33621E-4,.663E-5,0
STARLINK-30461,2023-147W,2026-06-26T18:16:57.277056,15.27568078,.00011134,43.0016,68.8410,209.5442,150.5347,0,U,57933,999,15328,-.53164104E-4,-.1724E-4,0
STARLINK-30712,2023-148A,2026-06-26T10:52:09.576768,15.34392742,.0001077,53.1601,237.7480,79.1805,280.9319,0,U,57935,999,15509,-.19018E-4,-.1018E-4,0
