STARLINK-30457          
1 57900U 23146K   26177.95939563 -.00000118  00000+0  52532-5 0  9991
2 57900  43.0037  57.4382 0001098 269.5191  90.5535 15.27574817152709
STARLINK-30472          
1 57901U 23146L   26177.98674988 -.00002286  00000+0 -73611-4 0  9991
2 57901  43.0060  53.3820 0001382 265.8455  94.2239 15.27555957152757
STARLINK-30462          
1 57902U 23146M   26177.94911492 -.00000680  00000+0 -15211-4 0  9990
2 57902  43.0006  57.3691 0000575 241.7444 118.3349 15.27571365153721
STARLINK-30449          
1 57903U 23146N   26177.98623713 -.00001168  00000+0 -32926-4 0  9995
2 57903  43.0055  56.7852 0001051 262.5378  97.5354 15.27568830152710
STARLINK-30466          
1 57904U 23146P   26177.95298403 -.00002669  00000+0 -87577-4 0  9996
2 57904  43.0004  57.4014 0001077 267.7053  92.3676 15.27558282152707
STARLINK-30428          
1 57906U 23146R   26177.95554491 -.00000981  00000+0 -26139-4 0  9992
2 57906  43.0025  57.4132 0000547 245.4074 114.6720 15.27569198152706
STARLINK-30482          
1 57907U 23146S   26177.70555948 -.00001054  00000+0 -28767-4 0  9995
2 57907  43.0050  58.9793 0002305 269.0830  90.9758 15.27568124152671
STARLINK-30464          
1 57908U 23146T   26177.70249015  .00001979  00000+0  81432-4 0  9993
2 57908  42.9999  62.3464 0001141 264.1903  95.8818 15.27578775152629
STARLINK-30463          
1 57909U 23146U   26177.97482196 -.00001116  00000+0 -31030-4 0  9996
2 57909  43.0112  57.5564 0002037 285.3533  74.7094 15.27561174152701
STARLINK-30453          
1 57910U 23146V   26177.95860977 -.00001953  00000+0 -61468-4 0  9990
2 57910  43.0028  54.0361 0001725 272.9717  87.0937 15.27567887152749
STARLINK-30478          
1 57911U 23146W   26177.98362072  .00004625  00000+0  17732-3 0  9998
2 57911  43.0059  56.7638 0001540 261.5803  98.4874 15.27611716153776
STARLINK-30477          
1 57912U 23146X   26177.72132335 -.00001626  00000+0 -49554-4 0  9996
2 57912  43.0063  54.8346 0001623 243.8890 116.1794 15.27587239153779
STARLINK-30450          
1 57913U 23147A   26177.96560749  .00002240  00000+0  90779-4 0  9994
2 57913  43.0027  67.7967 0001501 263.6123  96.4558 15.27622808153316
STARLINK-30483          
1 57914U 23147B   26177.97994925 -.00000027  00000+0  85413-5 0  9995
2 57914  42.9980 282.4146 0000955 275.7381  84.3362 15.27574037155029
STARLINK-30454          
1 57915U 23147C   26177.97334856 -.00000732  00000+0 -17091-4 0  9997
2 57915  43.0018  67.8528 0001303 268.1974  91.8729 15.27571632153313
STARLINK-30501          
1 57917U 23147E   26177.97591622 -.00011953  00000+0 -42584-3 0  9996
2 57917  43.0002  67.8696 0001817 266.8831  93.1813 15.27556711153333
STARLINK-30499          
1 57918U 23147F   26177.70055587 -.00000958  00000+0 -25273-4 0  9993
2 57918  43.0026 284.5883 0001647 259.6522 100.4144 15.27575709155007
STARLINK-30496          
1 57919U 23147G   26177.98749404  .00008670  00000+0  32415-3 0  9994
2 57919  43.0007  67.9580 0001093 252.3144 107.7588 15.27586481153345
STARLINK-30485          
1 57920U 23147H   26177.99133855 -.00000317  00000+0 -19943-5 0  9999
2 57920  43.0026  67.9884 0001400 268.9821  91.0870 15.27573148153347
STARLINK-30492          
1 57921U 23147J   26177.73621680 -.00001140  00000+0 -31891-4 0  9990
2 57921  43.0045  69.5102 0002487 270.9711  89.0856 15.27566233153277
STARLINK-30440          
1 57923U 23147L   26177.75553815 -.00008332  00000+0 -29418-3 0  9999
2 57923  43.0034  69.6477 0000925 269.9429  90.1316 15.27515160153303
STARLINK-30487          
1 57924U 23147M   26177.41263190  .00000844  00000+0  40188-4 0  9993
2 57924  43.0018  74.7676 0000911 274.0238  86.0509 15.27584683153218
STARLINK-30452          
1 57925U 23147N   26177.69267694 -.00000823  00000+0 -20381-4 0  9999
2 57925  43.0068  70.0375 0002101 268.2340  91.8271 15.27569000153262
STARLINK-30468          
1 57926U 23147P   26177.97671119 -.00000368  00000+0 -38524-5 0  9995
2 57926  43.0033  71.2847 0001339 269.7891  90.2807 15.27572459153272
STARLINK-30448          
1 57928U 23147R   26177.92546159 -.00001629  00000+0 -49713-4 0  9999
2 57928  43.0011  71.7492 0001580 277.0103  83.0569 15.27561917153268
STARLINK-30476          
1 57930U 23147T   26178.17299716  .00228184  00000+0  98019-3 0  9991
2 57930  42.9914 345.3668 0009457  42.6738 317.4868 15.83580581154286
STARLINK-30488          
1 57931U 23147U   26177.99470227 -.00001793  00000+0 -55684-4 0  9998
2 57931  43.0017  71.4065 0001345 256.4310 103.6392 15.27564233153303
STARLINK-30471          
1 57932U 23147V   26177.96178493  .00000663  00000+0  33621-4 0  9996
2 57932  43.0040  67.7630 0001988 284.5887  75.4744 15.27578283153318
STARLINK-30461          
1 57933U 23147W   26177.76177404 -.00001724  00000+0 -53164-4 0  9991
2 57933  43.0016  68.8410 0001113 209.5442 150.5347 15.27568078153285
STARLINK-30712          
1 57935U 23148A   26177.45288862 -.00001018  00000+0 -19018-4 0  9997
2 57935  53.1601 237.7480 0001077  79.1805 280.9319 15.34392742155095
